{
  "norad_id": 59583,
  "name": "STARLINK-31697",
  "history": [
    {
      "epoch": "2026-04-14T12:19:10.778016Z",
      "apogee_km": 484.07020961078797,
      "perigee_km": 482.0489011055797,
      "latitude_deg": 5.076429429352405e-06,
      "longitude_deg": 139.00013364868892,
      "height_km": 482.7191104676376,
      "semi_major_axis_km": 6861.196555358183,
      "eccentricity": 0.0001473,
      "inclination_deg": 43.0005,
      "raan_deg": 166.4837,
      "arg_perigee_deg": 276.6633,
      "mean_anomaly_deg": 83.4051,
      "mean_motion_rev_day": 15.27576507
    },
    {
      "epoch": "2026-04-15T11:51:32.279040Z",
      "apogee_km": 483.97797321943017,
      "perigee_km": 482.1789625237543,
      "latitude_deg": 3.515197686680691e-05,
      "longitude_deg": 139.40485490535377,
      "height_km": 482.74476588226185,
      "semi_major_axis_km": 6861.215467871592,
      "eccentricity": 0.0001311,
      "inclination_deg": 43.0007,
      "raan_deg": 160.9447,
      "arg_perigee_deg": 277.0507,
      "mean_anomaly_deg": 83.0196,
      "mean_motion_rev_day": 15.27570191
    },
    {
      "epoch": "2026-04-16T14:32:11.192640Z",
      "apogee_km": 483.87948757038157,
      "perigee_km": 482.22182463266836,
      "latitude_deg": 2.5882045759274456e-05,
      "longitude_deg": 91.86900216922847,
      "height_km": 482.7067826286531,
      "semi_major_axis_km": 6861.187656101525,
      "eccentricity": 0.0001208,
      "inclination_deg": 43.0005,
      "raan_deg": 154.6666,
      "arg_perigee_deg": 278.3577,
      "mean_anomaly_deg": 81.7138,
      "mean_motion_rev_day": 15.27579479
    },
    {
      "epoch": "2026-04-17T14:04:31.626624Z",
      "apogee_km": 483.82074445814214,
      "perigee_km": 482.22991536032896,
      "latitude_deg": -1.1165941679562062e-05,
      "longitude_deg": 92.27800971766997,
      "height_km": 482.68583556538044,
      "semi_major_axis_km": 6861.162329909235,
      "eccentricity": 0.00011593,
      "inclination_deg": 43.0007,
      "raan_deg": 149.1275,
      "arg_perigee_deg": 278.3913,
      "mean_anomaly_deg": 81.6807,
      "mean_motion_rev_day": 15.27587937
    },
    {
      "epoch": "2026-04-18T10:28:33.625056Z",
      "apogee_km": 483.80390712663393,
      "perigee_km": 482.2464233151286,
      "latitude_deg": -5.8370299133224543e-05,
      "longitude_deg": 140.63131202413282,
      "height_km": 482.7470964560503,
      "semi_major_axis_km": 6861.1621652208805,
      "eccentricity": 0.0001135,
      "inclination_deg": 43.0003,
      "raan_deg": 144.327,
      "arg_perigee_deg": 274.0198,
      "mean_anomaly_deg": 86.0523,
      "mean_motion_rev_day": 15.27587992
    },
    {
      "epoch": "2026-04-19T10:00:53.679744Z",
      "apogee_km": 483.80962083618397,
      "perigee_km": 482.219617559952,
      "latitude_deg": 2.6288284089124783e-05,
      "longitude_deg": 141.0408321366198,
      "height_km": 482.9520874003979,
      "semi_major_axis_km": 6861.151619198068,
      "eccentricity": 0.00011587,
      "inclination_deg": 43.0009,
      "raan_deg": 138.7867,
      "arg_perigee_deg": 258.322,
      "mean_anomaly_deg": 101.7502,
      "mean_motion_rev_day": 15.27591514
    },
    {
      "epoch": "2026-04-20T11:07:25.028832Z",
      "apogee_km": 483.9101126589039,
      "perigee_km": 482.23597740791683,
      "latitude_deg": -3.98103455077791e-05,
      "longitude_deg": 117.4718606917426,
      "height_km": 482.9364216339193,
      "semi_major_axis_km": 6861.21004503341,
      "eccentricity": 0.000122,
      "inclination_deg": 43.0013,
      "raan_deg": 132.8796,
      "arg_perigee_deg": 264.0553,
      "mean_anomaly_deg": 96.0159,
      "mean_motion_rev_day": 15.27572002
    },
    {
      "epoch": "2026-04-21T12:13:54.439104Z",
      "apogee_km": 483.93848128218724,
      "perigee_km": 482.13948093993986,
      "latitude_deg": -2.2712144930866308e-05,
      "longitude_deg": 93.90967772302204,
      "height_km": 482.91496329134077,
      "semi_major_axis_km": 6861.175981111063,
      "eccentricity": 0.0001311,
      "inclination_deg": 43.0018,
      "raan_deg": 126.9711,
      "arg_perigee_deg": 263.6701,
      "mean_anomaly_deg": 96.4001,
      "mean_motion_rev_day": 15.27583378
    },
    {
      "epoch": "2026-04-22T11:46:14.750400Z",
      "apogee_km": 483.9381545824144,
      "perigee_km": 482.04365994466025,
      "latitude_deg": -1.4720870893871333e-05,
      "longitude_deg": 94.31974200142355,
      "height_km": 482.9089051585706,
      "semi_major_axis_km": 6861.127907263537,
      "eccentricity": 0.00013806,
      "inclination_deg": 43.0014,
      "raan_deg": 121.4325,
      "arg_perigee_deg": 261.428,
      "mean_anomaly_deg": 98.6415,
      "mean_motion_rev_day": 15.27599433
    },
    {
      "epoch": "2026-04-23T08:10:15.701664Z",
      "apogee_km": 483.84703220945266,
      "perigee_km": 482.16070100725756,
      "latitude_deg": 4.518177384308893e-06,
      "longitude_deg": 142.67628799262687,
      "height_km": 482.98220781613134,
      "semi_major_axis_km": 6861.140866608354,
      "eccentricity": 0.00012289,
      "inclination_deg": 43.0018,
      "raan_deg": 116.6308,
      "arg_perigee_deg": 256.1636,
      "mean_anomaly_deg": 103.9079,
      "mean_motion_rev_day": 15.27595105
    },
    {
      "epoch": "2026-04-24T06:08:28.512384Z",
      "apogee_km": 484.1748399818016,
      "perigee_km": 481.92299876306424,
      "latitude_deg": -5.529127367644667e-05,
      "longitude_deg": 167.0496597270562,
      "height_km": 483.03162353024715,
      "semi_major_axis_km": 6861.185919372433,
      "eccentricity": 0.0001641,
      "inclination_deg": 43.0037,
      "raan_deg": 111.4599,
      "arg_perigee_deg": 259.4867,
      "mean_anomaly_deg": 100.5799,
      "mean_motion_rev_day": 15.27580059
    },
    {
      "epoch": "2026-04-25T16:39:54.754272Z",
      "apogee_km": 484.114480018372,
      "perigee_km": 481.92714290807635,
      "latitude_deg": 4.243062144672154e-06,
      "longitude_deg": -0.3519671969994302,
      "height_km": 483.3968007442738,
      "semi_major_axis_km": 6861.157811463224,
      "eccentricity": 0.0001594,
      "inclination_deg": 43.0004,
      "raan_deg": 103.3354,
      "arg_perigee_deg": 236.7667,
      "mean_anomaly_deg": 123.3032,
      "mean_motion_rev_day": 15.27589446
    },
    {
      "epoch": "2026-04-26T16:12:15.897600Z",
      "apogee_km": 484.4802815212115,
      "perigee_km": 481.63233740232045,
      "latitude_deg": 3.406298566882205e-06,
      "longitude_deg": 0.05321420850592676,
      "height_km": 483.29888035044536,
      "semi_major_axis_km": 6861.193309461766,
      "eccentricity": 0.00020754,
      "inclination_deg": 43.0027,
      "raan_deg": 97.7954,
      "arg_perigee_deg": 250.9323,
      "mean_anomaly_deg": 109.1304,
      "mean_motion_rev_day": 15.27577591
    },
    {
      "epoch": "2026-04-27T15:44:38.264352Z",
      "apogee_km": 483.5535763962589,
      "perigee_km": 482.62319423401004,
      "latitude_deg": 1.2342304088110608e-05,
      "longitude_deg": 0.4549948414454081,
      "height_km": 483.1814184798786,
      "semi_major_axis_km": 6861.225385315134,
      "eccentricity": 6.78e-05,
      "inclination_deg": 43.0015,
      "raan_deg": 92.2571,
      "arg_perigee_deg": 227.0414,
      "mean_anomaly_deg": 133.0381,
      "mean_motion_rev_day": 15.27566879
    },
    {
      "epoch": "2026-04-28T09:00:20.933856Z",
      "apogee_km": 485.4183196121212,
      "perigee_km": 480.8308801064559,
      "latitude_deg": 2.3415555531360736e-05,
      "longitude_deg": 96.75959849512074,
      "height_km": 482.6658145885074,
      "semi_major_axis_km": 6861.261599859288,
      "eccentricity": 0.0003343,
      "inclination_deg": 43.0081,
      "raan_deg": 88.1984,
      "arg_perigee_deg": 275.9499,
      "mean_anomaly_deg": 84.0972,
      "mean_motion_rev_day": 15.27554785
    },
    {
      "epoch": "2026-04-29T21:05:56.107968Z",
      "apogee_km": 484.4378496541576,
      "perigee_km": 481.65220975009834,
      "latitude_deg": -2.0933842008133906e-05,
      "longitude_deg": -94.61059802940098,
      "height_km": 482.4767690404389,
      "semi_major_axis_km": 6861.182029702128,
      "eccentricity": 0.000203,
      "inclination_deg": 43.0061,
      "raan_deg": 79.7071,
      "arg_perigee_deg": 284.3898,
      "mean_anomaly_deg": 75.6728,
      "mean_motion_rev_day": 15.27581358
    },
    {
      "epoch": "2026-04-30T14:21:39.472128Z",
      "apogee_km": 483.4053462684924,
      "perigee_km": 482.6816289506587,
      "latitude_deg": 5.5734111908071235e-05,
      "longitude_deg": 1.6856724533550254,
      "height_km": 482.81445336890033,
      "semi_major_axis_km": 6861.180487609575,
      "eccentricity": 5.274e-05,
      "inclination_deg": 43.0014,
      "raan_deg": 75.6429,
      "arg_perigee_deg": 270.8093,
      "mean_anomaly_deg": 89.2699,
      "mean_motion_rev_day": 15.27581873
    },
    {
      "epoch": "2026-05-02T05:35:34.224864Z",
      "apogee_km": 483.8655942070591,
      "perigee_km": 482.2490968192569,
      "latitude_deg": -6.282526583257954e-07,
      "longitude_deg": 122.36507801165416,
      "height_km": 482.52219326440934,
      "semi_major_axis_km": 6861.194345513158,
      "eccentricity": 0.0001178,
      "inclination_deg": 43.0012,
      "raan_deg": 66.4117,
      "arg_perigee_deg": 292.6891,
      "mean_anomaly_deg": 67.3836,
      "mean_motion_rev_day": 15.27577245
    },
    {
      "epoch": "2026-05-03T20:49:28.970688Z",
      "apogee_km": 483.67570751788753,
      "perigee_km": 482.4365760364817,
      "latitude_deg": 3.9496324132444906e-05,
      "longitude_deg": -116.95688692662765,
      "height_km": 482.92914920783164,
      "semi_major_axis_km": 6861.193141777184,
      "eccentricity": 9.03e-05,
      "inclination_deg": 43.0013,
      "raan_deg": 57.179,
      "arg_perigee_deg": 261.0285,
      "mean_anomaly_deg": 99.0465,
      "mean_motion_rev_day": 15.27577647
    }
  ]
}